[{"OBJECT_NAME":"STARLINK-32255","OBJECT_ID":"2024-141V","EPOCH":"2026-03-09T17:01:50.346336","MEAN_MOTION":15.30197584,"ECCENTRICITY":0.00011069,"INCLINATION":53.1587,"RA_OF_ASC_NODE":242.494,"ARG_OF_PERICENTER":91.0152,"MEAN_ANOMALY":269.0975,"EPHEMERIS_TYPE":0,"CLASSIFICATION_TYPE":"U","NORAD_CAT_ID":60417,"ELEMENT_SET_NO":999,"REV_AT_EPOCH":8958,"BSTAR":-4.305564e-6,"MEAN_MOTION_DOT":-4.87e-6,"MEAN_MOTION_DDOT":0},{"OBJECT_NAME":"FENGYUN 1C DEB","OBJECT_ID":"1999-025BZU","EPOCH":"2026-03-09T17:19:51.665664","MEAN_MOTION":15.28412118,"ECCENTRICITY":0.00188802,"INCLINATION":98.9598,"RA_OF_ASC_NODE":354.2029,"ARG_OF_PERICENTER":82.3682,"MEAN_ANOMALY":277.9697,"EPHEMERIS_TYPE":0,"CLASSIFICATION_TYPE":"U","NORAD_CAT_ID":31614,"ELEMENT_SET_NO":999,"REV_AT_EPOCH":97742,"BSTAR":0.011500831,"MEAN_MOTION_DOT":0.0033373,"MEAN_MOTION_DDOT":0}]
